SBSS (USA 216)          
1 37168U 10048A   26068.88624904  .00004946  00000+0  24191-3 0  9993
2 37168  97.7474 312.3885 0082264 184.8326 306.5835 15.15724210837421
STARLINK-31967          
1 60021U 24111F   26068.40307641 -.00001132  00000+0 -26110-4 0  9997
2 60021  53.1598  76.6673 0001376  88.3898 271.7261 15.30190080 99009
